STARLINK-32172          
1 61518U 24183K   26068.49396085  .00000877  00000+0  41759-4 0  9996
2 61518  53.1601 143.2666 0001125  87.2122 272.9008 15.30188090 79625
SCS-01 D                
1 63985U 25100D   26068.75607686  .00032471  00000+0  10528-2 0  9990
2 63985  97.3730 145.4097 0006346 266.2302  93.8214 15.31902149 45621
